[{"OBJECT_NAME":"STARLINK-36480","OBJECT_ID":"2026-003C","EPOCH":"2026-03-08T12:32:06.804672","MEAN_MOTION":15.2760571,"ECCENTRICITY":0.00016268,"INCLINATION":42.9986,"RA_OF_ASC_NODE":233.8057,"ARG_OF_PERICENTER":243.2269,"MEAN_ANOMALY":116.8416,"EPHEMERIS_TYPE":0,"CLASSIFICATION_TYPE":"U","NORAD_CAT_ID":67336,"ELEMENT_SET_NO":999,"REV_AT_EPOCH":864,"BSTAR":0.0012182774,"MEAN_MOTION_DOT":0.00033441,"MEAN_MOTION_DDOT":0},{"OBJECT_NAME":"FENGYUN 1C DEB","OBJECT_ID":"1999-025BZU","EPOCH":"2026-03-09T17:19:51.665664","MEAN_MOTION":15.28412118,"ECCENTRICITY":0.00188802,"INCLINATION":98.9598,"RA_OF_ASC_NODE":354.2029,"ARG_OF_PERICENTER":82.3682,"MEAN_ANOMALY":277.9697,"EPHEMERIS_TYPE":0,"CLASSIFICATION_TYPE":"U","NORAD_CAT_ID":31614,"ELEMENT_SET_NO":999,"REV_AT_EPOCH":97742,"BSTAR":0.011500831,"MEAN_MOTION_DOT":0.0033373,"MEAN_MOTION_DDOT":0}]
